[{"OBJECT_NAME":"ONEWEB-0691","OBJECT_ID":"2024-188F","EPOCH":"2026-02-10T22:11:35.934144","MEAN_MOTION":13.11416031,"ECCENTRICITY":0.00020768,"INCLINATION":87.884,"RA_OF_ASC_NODE":46.0717,"ARG_OF_PERICENTER":77.1671,"MEAN_ANOMALY":282.9689,"EPHEMERIS_TYPE":0,"CLASSIFICATION_TYPE":"U","NORAD_CAT_ID":61599,"ELEMENT_SET_NO":999,"REV_AT_EPOCH":6793,"BSTAR":0.0011094069,"MEAN_MOTION_DOT":4.06e-6,"MEAN_MOTION_DDOT":0},{"OBJECT_NAME":"ONEWEB-0692","OBJECT_ID":"2024-188G","EPOCH":"2026-02-10T22:40:52.612896","MEAN_MOTION":13.1141545,"ECCENTRICITY":0.00022863,"INCLINATION":87.8817,"RA_OF_ASC_NODE":46.2049,"ARG_OF_PERICENTER":114.3044,"MEAN_ANOMALY":245.8323,"EPHEMERIS_TYPE":0,"CLASSIFICATION_TYPE":"U","NORAD_CAT_ID":61600,"ELEMENT_SET_NO":999,"REV_AT_EPOCH":6792,"BSTAR":-0.00083705389,"MEAN_MOTION_DOT":-2.84e-6,"MEAN_MOTION_DDOT":0},{"OBJECT_NAME":"ONEWEB-0693","OBJECT_ID":"2024-188H","EPOCH":"2026-02-10T21:55:26.668704","MEAN_MOTION":13.17648318,"ECCENTRICITY":0.00011252,"INCLINATION":87.909,"RA_OF_ASC_NODE":30.9933,"ARG_OF_PERICENTER":70.8886,"MEAN_ANOMALY":289.2367,"EPHEMERIS_TYPE":0,"CLASSIFICATION_TYPE":"U","NORAD_CAT_ID":61601,"ELEMENT_SET_NO":999,"REV_AT_EPOCH":6925,"BSTAR":4.5172622e-5,"MEAN_MOTION_DOT":3.0e-7,"MEAN_MOTION_DDOT":0},{"OBJECT_NAME":"ONEWEB-0695","OBJECT_ID":"2024-188J","EPOCH":"2026-02-10T12:57:22.951872","MEAN_MOTION":13.11414502,"ECCENTRICITY":0.00022982,"INCLINATION":87.8819,"RA_OF_ASC_NODE":46.2767,"ARG_OF_PERICENTER":98.5535,"MEAN_ANOMALY":261.5854,"EPHEMERIS_TYPE":0,"CLASSIFICATION_TYPE":"U","NORAD_CAT_ID":61602,"ELEMENT_SET_NO":999,"REV_AT_EPOCH":6786,"BSTAR":0.0014108977,"MEAN_MOTION_DOT":5.13e-6,"MEAN_MOTION_DDOT":0},{"OBJECT_NAME":"ONEWEB-0697","OBJECT_ID":"2024-188K","EPOCH":"2026-02-10T22:53:04.964352","MEAN_MOTION":13.11416388,"ECCENTRICITY":0.00021517,"INCLINATION":87.8822,"RA_OF_ASC_NODE":46.1835,"ARG_OF_PERICENTER":112.7372,"MEAN_ANOMALY":247.3984,"EPHEMERIS_TYPE":0,"CLASSIFICATION_TYPE":"U","NORAD_CAT_ID":61603,"ELEMENT_SET_NO":999,"REV_AT_EPOCH":6790,"BSTAR":-0.0012684751,"MEAN_MOTION_DOT":-4.37e-6,"MEAN_MOTION_DDOT":0},{"OBJECT_NAME":"ONEWEB-0698","OBJECT_ID":"2024-188L","EPOCH":"2026-02-11T00:11:13.615008","MEAN_MOTION":13.114158,"ECCENTRICITY":0.00014309,"INCLINATION":87.882,"RA_OF_ASC_NODE":46.188,"ARG_OF_PERICENTER":128.2204,"MEAN_ANOMALY":231.9053,"EPHEMERIS_TYPE":0,"CLASSIFICATION_TYPE":"U","NORAD_CAT_ID":61604,"ELEMENT_SET_NO":999,"REV_AT_EPOCH":6793,"BSTAR":0.00093371572,"MEAN_MOTION_DOT":3.44e-6,"MEAN_MOTION_DDOT":0},{"OBJECT_NAME":"ONEWEB-0699","OBJECT_ID":"2024-188M","EPOCH":"2026-02-10T14:45:15.348672","MEAN_MOTION":13.10371584,"ECCENTRICITY":0.00019882,"INCLINATION":87.8757,"RA_OF_ASC_NODE":61.4819,"ARG_OF_PERICENTER":112.2816,"MEAN_ANOMALY":247.8522,"EPHEMERIS_TYPE":0,"CLASSIFICATION_TYPE":"U","NORAD_CAT_ID":61605,"ELEMENT_SET_NO":999,"REV_AT_EPOCH":6673,"BSTAR":-0.0017638466,"MEAN_MOTION_DOT":-6.03e-6,"MEAN_MOTION_DDOT":0},{"OBJECT_NAME":"ONEWEB-0700","OBJECT_ID":"2024-188N","EPOCH":"2026-02-10T12:57:41.158080","MEAN_MOTION":13.10372041,"ECCENTRICITY":0.00023615,"INCLINATION":87.8772,"RA_OF_ASC_NODE":61.3883,"ARG_OF_PERICENTER":106.3852,"MEAN_ANOMALY":253.7535,"EPHEMERIS_TYPE":0,"CLASSIFICATION_TYPE":"U","NORAD_CAT_ID":61606,"ELEMENT_SET_NO":999,"REV_AT_EPOCH":6671,"BSTAR":-0.0017454455,"MEAN_MOTION_DOT":-5.97e-6,"MEAN_MOTION_DDOT":0},{"OBJECT_NAME":"ONEWEB-0701","OBJECT_ID":"2024-188P","EPOCH":"2026-02-11T00:21:19.247040","MEAN_MOTION":13.10374296,"ECCENTRICITY":0.00021385,"INCLINATION":87.8762,"RA_OF_ASC_NODE":61.4014,"ARG_OF_PERICENTER":115.9531,"MEAN_ANOMALY":244.1817,"EPHEMERIS_TYPE":0,"CLASSIFICATION_TYPE":"U","NORAD_CAT_ID":61607,"ELEMENT_SET_NO":999,"REV_AT_EPOCH":6678,"BSTAR":-0.00042871493,"MEAN_MOTION_DOT":-1.37e-6,"MEAN_MOTION_DDOT":0},{"OBJECT_NAME":"ONEWEB-0702","OBJECT_ID":"2024-188Q","EPOCH":"2026-02-10T23:27:16.138368","MEAN_MOTION":13.11419932,"ECCENTRICITY":0.00025136,"INCLINATION":87.8838,"RA_OF_ASC_NODE":46.0782,"ARG_OF_PERICENTER":112.6906,"MEAN_ANOMALY":247.4488,"EPHEMERIS_TYPE":0,"CLASSIFICATION_TYPE":"U","NORAD_CAT_ID":61608,"ELEMENT_SET_NO":999,"REV_AT_EPOCH":6794,"BSTAR":0.00032837309,"MEAN_MOTION_DOT":1.29e-6,"MEAN_MOTION_DDOT":0},{"OBJECT_NAME":"ONEWEB-0704","OBJECT_ID":"2024-188R","EPOCH":"2026-02-11T00:04:36.930144","MEAN_MOTION":13.10372915,"ECCENTRICITY":0.00025486,"INCLINATION":87.8773,"RA_OF_ASC_NODE":61.377,"ARG_OF_PERICENTER":111.1995,"MEAN_ANOMALY":248.9405,"EPHEMERIS_TYPE":0,"CLASSIFICATION_TYPE":"U","NORAD_CAT_ID":61609,"ELEMENT_SET_NO":999,"REV_AT_EPOCH":6676,"BSTAR":-0.0015678593,"MEAN_MOTION_DOT":-5.35e-6,"MEAN_MOTION_DDOT":0},{"OBJECT_NAME":"ONEWEB-0705","OBJECT_ID":"2024-188S","EPOCH":"2026-02-11T00:11:45.945888","MEAN_MOTION":13.10374474,"ECCENTRICITY":0.000301,"INCLINATION":87.8763,"RA_OF_ASC_NODE":61.3915,"ARG_OF_PERICENTER":91.6892,"MEAN_ANOMALY":268.458,"EPHEMERIS_TYPE":0,"CLASSIFICATION_TYPE":"U","NORAD_CAT_ID":61610,"ELEMENT_SET_NO":999,"REV_AT_EPOCH":5893,"BSTAR":-0.0016960274,"MEAN_MOTION_DOT":-5.79e-6,"MEAN_MOTION_DDOT":0},{"OBJECT_NAME":"ONEWEB-0706","OBJECT_ID":"2024-188T","EPOCH":"2026-02-10T14:40:28.555968","MEAN_MOTION":13.10370469,"ECCENTRICITY":0.00023866,"INCLINATION":87.875,"RA_OF_ASC_NODE":61.486,"ARG_OF_PERICENTER":102.9765,"MEAN_ANOMALY":257.1629,"EPHEMERIS_TYPE":0,"CLASSIFICATION_TYPE":"U","NORAD_CAT_ID":61611,"ELEMENT_SET_NO":999,"REV_AT_EPOCH":6680,"BSTAR":-0.0014866752,"MEAN_MOTION_DOT":-5.06e-6,"MEAN_MOTION_DDOT":0},{"OBJECT_NAME":"ONEWEB-0707","OBJECT_ID":"2024-188U","EPOCH":"2026-02-10T14:50:01.631616","MEAN_MOTION":13.10372898,"ECCENTRICITY":0.0002342,"INCLINATION":87.8763,"RA_OF_ASC_NODE":61.4692,"ARG_OF_PERICENTER":103.067,"MEAN_ANOMALY":257.0719,"EPHEMERIS_TYPE":0,"CLASSIFICATION_TYPE":"U","NORAD_CAT_ID":61612,"ELEMENT_SET_NO":999,"REV_AT_EPOCH":6674,"BSTAR":-0.0024204629,"MEAN_MOTION_DOT":-8.32e-6,"MEAN_MOTION_DDOT":0},{"OBJECT_NAME":"ONEWEB-0708","OBJECT_ID":"2024-188V","EPOCH":"2026-02-11T00:26:07.804032","MEAN_MOTION":13.10376348,"ECCENTRICITY":0.0002385,"INCLINATION":87.8756,"RA_OF_ASC_NODE":61.4191,"ARG_OF_PERICENTER":84.9483,"MEAN_ANOMALY":275.1916,"EPHEMERIS_TYPE":0,"CLASSIFICATION_TYPE":"U","NORAD_CAT_ID":61613,"ELEMENT_SET_NO":999,"REV_AT_EPOCH":6677,"BSTAR":2.9251333e-5,"MEAN_MOTION_DOT":2.3e-7,"MEAN_MOTION_DDOT":0}]
