ONEWEB-0691             
1 61599U 24188F   26041.92472146  .00000406  00000+0  11094-2 0  9997
2 61599  87.8840  46.0717 0002076  77.1671 282.9689 13.11416031 67936
ONEWEB-0692             
1 61600U 24188G   26041.94505339 -.00000284  00000+0 -83705-3 0  9998
2 61600  87.8817  46.2049 0002286 114.3044 245.8323 13.11415450 67920
ONEWEB-0693             
1 61601U 24188H   26041.91350311  .00000030  00000+0  45173-4 0  9999
2 61601  87.9090  30.9933 0001125  70.8886 289.2367 13.17648318 69253
ONEWEB-0695             
1 61602U 24188J   26041.53984898  .00000513  00000+0  14109-2 0  9990
2 61602  87.8819  46.2767 0002298  98.5535 261.5854 13.11414502 67866
ONEWEB-0697             
1 61603U 24188K   26041.95352968 -.00000437  00000+0 -12685-2 0  9998
2 61603  87.8822  46.1835 0002151 112.7372 247.3984 13.11416388 67907
ONEWEB-0698             
1 61604U 24188L   26042.00779647  .00000344  00000+0  93372-3 0  9991
2 61604  87.8820  46.1880 0001430 128.2204 231.9053 13.11415800 67938
ONEWEB-0699             
1 61605U 24188M   26041.61476098 -.00000603  00000+0 -17638-2 0  9992
2 61605  87.8757  61.4819 0001988 112.2816 247.8522 13.10371584 66733
ONEWEB-0700             
1 61606U 24188N   26041.54005970 -.00000597  00000+0 -17454-2 0  9990
2 61606  87.8772  61.3883 0002361 106.3852 253.7535 13.10372041 66718
ONEWEB-0701             
1 61607U 24188P   26042.01480610 -.00000137  00000+0 -42871-3 0  9994
2 61607  87.8762  61.4014 0002138 115.9531 244.1817 13.10374296 66785
ONEWEB-0702             
1 61608U 24188Q   26041.97727012  .00000129  00000+0  32837-3 0  9999
2 61608  87.8838  46.0782 0002513 112.6906 247.4488 13.11419932 67945
ONEWEB-0704             
1 61609U 24188R   26042.00320521 -.00000535  00000+0 -15679-2 0  9996
2 61609  87.8773  61.3770 0002548 111.1995 248.9405 13.10372915 66763
ONEWEB-0705             
1 61610U 24188S   26042.00817067 -.00000579  00000+0 -16960-2 0  9996
2 61610  87.8763  61.3915 0003010  91.6892 268.4580 13.10374474 58931
ONEWEB-0706             
1 61611U 24188T   26041.61144162 -.00000506  00000+0 -14867-2 0  9996
2 61611  87.8750  61.4860 0002386 102.9765 257.1629 13.10370469 66802
ONEWEB-0707             
1 61612U 24188U   26041.61807444 -.00000832  00000+0 -24205-2 0  9995
2 61612  87.8763  61.4692 0002342 103.0670 257.0719 13.10372898 66749
ONEWEB-0708             
1 61613U 24188V   26042.01814588  .00000023  00000+0  29251-4 0  9996
2 61613  87.8756  61.4191 0002385  84.9483 275.1916 13.10376348 66779
